start=new Date('2022-12-01T00:00:00.000Z').valueOf();
sats=[{"PERIAPSIS":"546.000","MEAN_MOTION":"15.06399867","TLE_LINE1":"1 44713U 19074A   22334.75197219  .00001219  00000-0  10072-3 0  9991","GP_ID":"219212604","FILE":"3676429","RCS_SIZE":"LARGE","EPHEMERIS_TYPE":"0","MEAN_ELEMENT_THEORY":"SGP4","TLE_LINE2":"2 44713  53.0565 150.9156 0001753  69.2886 290.8291 15.06399867168647","MEAN_MOTION_DOT":"0.00001219","ARG_OF_PERICENTER":"69.2886","BSTAR":"0.00010072000000","SITE":"AFETR","ECCENTRICITY":"0.00017530","LAUNCH_DATE":"2019-11-11","DECAY_DATE":null,"OBJECT_NAME":"STARLINK-1007","INCLINATION":"53.0565","COUNTRY_CODE":"US","OBJECT_ID":"2019-074A","CENTER_NAME":"EARTH","RA_OF_ASC_NODE":"150.9156","TIME_SYSTEM":"UTC","REV_AT_EPOCH":"16864","PERIOD":"95.592","MEAN_ANOMALY":"290.8291","APOAPSIS":"548.428","MEAN_MOTION_DDOT":"0.0000000000000","SEMIMAJOR_AXIS":"6925.349","EPOCH":"2022-11-30T18:02:50.397216","CLASSIFICATION_TYPE":"U","REF_FRAME":"TEME","OBJECT_TYPE":"PAYLOAD","NORAD_CAT_ID":"44713","ELEMENT_SET_NO":"999"},{"LAUNCH_DATE":"2019-11-11","DECAY_DATE":null,"SITE":"AFETR","ECCENTRICITY":"0.00015220","TLE_LINE2":"2 44714  53.0538 150.7006 0001522  79.4790 280.6370 15.06398969168659","MEAN_MOTION_DOT":"0.00001296","BSTAR":"0.00010589000000","ARG_OF_PERICENTER":"79.4790","EPHEMERIS_TYPE":"0","MEAN_ELEMENT_THEORY":"SGP4","RCS_SIZE":"LARGE","FILE":"3676429","TLE_LINE1":"1 44714U 19074B   22334.79715116  .00001296  00000-0  10589-3 0  9996","GP_ID":"219213356","MEAN_MOTION":"15.06398969","PERIAPSIS":"546.163","REF_FRAME":"TEME","OBJECT_TYPE":"PAYLOAD","ELEMENT_SET_NO":"999","NORAD_CAT_ID":"44714","CLASSIFICATION_TYPE":"U","EPOCH":"2022-11-30T19:07:53.860224","APOAPSIS":"548.271","SEMIMAJOR_AXIS":"6925.352","MEAN_MOTION_DDOT":"0.0000000000000","MEAN_ANOMALY":"280.6370","RA_OF_ASC_NODE":"150.7006","TIME_SYSTEM":"UTC","CENTER_NAME":"EARTH","PERIOD":"95.592","REV_AT_EPOCH":"16865","INCLINATION":"53.0538","OBJECT_ID":"2019-074B","COUNTRY_CODE":"US","OBJECT_NAME":"STARLINK-1008"},{"LAUNCH_DATE":"2019-11-11","DECAY_DATE":null,"SITE":"AFETR","ECCENTRICITY":"0.00015070","TLE_LINE2":"2 44715  53.0542 150.7615 0001507  89.7507 270.3655 15.06403307168648","MEAN_MOTION_DOT":"0.00000821","BSTAR":"0.00007398200000","ARG_OF_PERICENTER":"89.7507","EPHEMERIS_TYPE":"0","MEAN_ELEMENT_THEORY":"SGP4","RCS_SIZE":"LARGE","FILE":"3676429","TLE_LINE1":"1 44715U 19074C   22334.78608632  .00000821  00000-0  73982-4 0  9990","GP_ID":"219213595","MEAN_MOTION":"15.06403307","PERIAPSIS":"546.160","REF_FRAME":"TEME","OBJECT_TYPE":"PAYLOAD","NORAD_CAT_ID":"44715","ELEMENT_SET_NO":"999","CLASSIFICATION_TYPE":"U","EPOCH":"2022-11-30T18:51:57.858048","APOAPSIS":"548.247","MEAN_MOTION_DDOT":"0.0000000000000","SEMIMAJOR_AXIS":"6925.338","MEAN_ANOMALY":"270.3655","PERIOD":"95.592","REV_AT_EPOCH":"16864","TIME_SYSTEM":"UTC","RA_OF_ASC_NODE":"150.7615","CENTER_NAME":"EARTH","OBJECT_ID":"2019-074C","COUNTRY_CODE":"US","INCLINATION":"53.0542","OBJECT_NAME":"STARLINK-1009"},{"APOAPSIS":"548.471","MEAN_MOTION_DDOT":"0.0000000000000","SEMIMAJOR_AXIS":"6925.351","EPOCH":"2022-11-30T04:58:38.924544","CLASSIFICATION_TYPE":"U","OBJECT_TYPE":"PAYLOAD","REF_FRAME":"TEME","ELEMENT_SET_NO":"999","NORAD_CAT_ID":"44716","OBJECT_NAME":"STARLINK-1010","INCLINATION":"53.0538","COUNTRY_CODE":"US","OBJECT_ID":"2019-074D","RA_OF_ASC_NODE":"153.3534","CENTER_NAME":"EARTH","TIME_SYSTEM":"UTC","PERIOD":"95.592","REV_AT_EPOCH":"16854","MEAN_ANOMALY":"295.3185","EPHEMERIS_TYPE":"0","MEAN_ELEMENT_THEORY":"SGP4","TLE_LINE2":"2 44716  53.0538 153.3534 0001812  64.7992 295.3185 15.06399092168542","MEAN_MOTION_DOT":"0.00001340","BSTAR":"0.00010886000000","ARG_OF_PERICENTER":"64.7992","SITE":"AFETR","ECCENTRICITY":"0.00018120","LAUNCH_DATE":"2019-11-11","DECAY_DATE":null,"PERIAPSIS":"545.961","MEAN_MOTION":"15.06399092","TLE_LINE1":"1 44716U 19074D   22334.20739496  .00001340  00000-0  10886-3 0  9991","GP_ID":"219171049","FILE":"3675646","RCS_SIZE":"LARGE"},{"LAUNCH_DATE":"2019-11-11","DECAY_DATE":null,"SITE":"AFETR","ECCENTRICITY":"0.00018200","TLE_LINE2":"2 44717  53.0553 171.2746 0001820  60.7551 299.3620 15.06391941168352","MEAN_MOTION_DOT":"-0.00000618","ARG_OF_PERICENTER":"60.7551","BSTAR":"-0.00002260400000","EPHEMERIS_TYPE":"0","MEAN_ELEMENT_THEORY":"SGP4","RCS_SIZE":"LARGE","FILE":"3676429","TLE_LINE1":"1 44717U 19074E   22334.66998742 -.00000618  00000-0 -22604-4 0  9994","GP_ID":"219212105","MEAN_MOTION":"15.06391941","PERIAPSIS":"545.978","REF_FRAME":"TEME","OBJECT_TYPE":"PAYLOAD","ELEMENT_SET_NO":"999","NORAD_CAT_ID":"44717","CLASSIFICATION_TYPE":"U","EPOCH":"2022-11-30T16:04:46.913088","APOAPSIS":"548.499","SEMIMAJOR_AXIS":"6925.373","MEAN_MOTION_DDOT":"0.0000000000000","MEAN_ANOMALY":"299.3620","REV_AT_EPOCH":"16835","PERIOD":"95.593","RA_OF_ASC_NODE":"171.2746","TIME_SYSTEM":"UTC","CENTER_NAME":"EARTH","OBJECT_ID":"2019-074E","COUNTRY_CODE":"US","INCLINATION":"53.0553","OBJECT_NAME":"STARLINK-1011"},{"PERIAPSIS":"545.970","MEAN_MOTION":"15.06404613","TLE_LINE1":"1 44718U 19074F   22334.50964059  .00001587  00000-0  12541-3 0  9994","GP_ID":"219181619","FILE":"3675921","RCS_SIZE":"LARGE","MEAN_ELEMENT_THEORY":"SGP4","EPHEMERIS_TYPE":"0","BSTAR":"0.00012541000000","MEAN_MOTION_DOT":"0.00001587","ARG_OF_PERICENTER":"62.5246","TLE_LINE2":"2 44718  53.0539 152.0011 0001775  62.5246 297.5923 15.06404613168772","ECCENTRICITY":"0.00017750","SITE":"AFETR","DECAY_DATE":null,"LAUNCH_DATE":"2019-11-11","OBJECT_NAME":"STARLINK-1012","INCLINATION":"53.0539","COUNTRY_CODE":"US","OBJECT_ID":"2019-074F","RA_OF_ASC_NODE":"152.0011","CENTER_NAME":"EARTH","TIME_SYSTEM":"UTC","REV_AT_EPOCH":"16877","PERIOD":"95.592","MEAN_ANOMALY":"297.5923","SEMIMAJOR_AXIS":"6925.334","MEAN_MOTION_DDOT":"0.0000000000000","APOAPSIS":"548.429","EPOCH":"2022-11-30T12:13:52.946976","CLASSIFICATION_TYPE":"U","ELEMENT_SET_NO":"999","NORAD_CAT_ID":"44718","REF_FRAME":"TEME","OBJECT_TYPE":"PAYLOAD"},{"MEAN_ELEMENT_THEORY":"SGP4","EPHEMERIS_TYPE":"0","MEAN_MOTION_DOT":"-0.00000463","BSTAR":"-0.00001215200000","ARG_OF_PERICENTER":"81.8556","TLE_LINE2":"2 44719  53.0548 150.7787 0001698  81.8556 278.2625 15.06399921169771","ECCENTRICITY":"0.00016980","SITE":"AFETR","DECAY_DATE":null,"LAUNCH_DATE":"2019-11-11","PERIAPSIS":"546.038","MEAN_MOTION":"15.06399921","TLE_LINE1":"1 44719U 19074G   22334.78240693 -.00000463  00000-0 -12152-4 0  9999","GP_ID":"219213095","RCS_SIZE":"LARGE","FILE":"3676429","SEMIMAJOR_AXIS":"6925.349","MEAN_MOTION_DDOT":"0.0000000000000","APOAPSIS":"548.390","EPOCH":"2022-11-30T18:46:39.958752","CLASSIFICATION_TYPE":"U","NORAD_CAT_ID":"44719","ELEMENT_SET_NO":"999","OBJECT_TYPE":"PAYLOAD","REF_FRAME":"TEME","OBJECT_NAME":"STARLINK-1013","OBJECT_ID":"2019-074G","COUNTRY_CODE":"US","INCLINATION":"53.0548","REV_AT_EPOCH":"16977","PERIOD":"95.592","RA_OF_ASC_NODE":"150.7787","CENTER_NAME":"EARTH","TIME_SYSTEM":"UTC","MEAN_ANOMALY":"278.2625"},{"CLASSIFICATION_TYPE":"U","REF_FRAME":"TEME","OBJECT_TYPE":"PAYLOAD","ELEMENT_SET_NO":"999","NORAD_CAT_ID":"44720","APOAPSIS":"548.326","MEAN_MOTION_DDOT":"0.0000000000000","SEMIMAJOR_AXIS":"6925.358","EPOCH":"2022-11-30T19:11:50.769024","TIME_SYSTEM":"UTC","RA_OF_ASC_NODE":"150.6837","CENTER_NAME":"EARTH","PERIOD":"95.592","REV_AT_EPOCH":"16865","MEAN_ANOMALY":"293.0912","OBJECT_NAME":"STARLINK-1014","INCLINATION":"53.0551","COUNTRY_CODE":"US","OBJECT_ID":"2019-074H","SITE":"AFETR","ECCENTRICITY":"0.00015930","LAUNCH_DATE":"2019-11-11","DECAY_DATE":null,"EPHEMERIS_TYPE":"0","MEAN_ELEMENT_THEORY":"SGP4","TLE_LINE2":"2 44720  53.0551 150.6837 0001593  67.0245 293.0912 15.06396998168658","ARG_OF_PERICENTER":"67.0245","MEAN_MOTION_DOT":"0.00001324","BSTAR":"0.00010778000000","GP_ID":"219211857","TLE_LINE1":"1 44720U 19074H   22334.79989316  .00001324  00000-0  10778-3 0  9990","RCS_SIZE":"LARGE","FILE":"3676429","PERIAPSIS":"546.120","MEAN_MOTION":"15.06396998"},{"LAUNCH_DATE":"2019-11-11","DECAY_DATE":null,"SITE":"AFETR","ECCENTRICITY":"0.00019570","TLE_LINE2":"2 44721  53.0530 150.7396 0001957  66.8639 293.2556 15.06395032168648","MEAN_MOTION_DOT":"-0.00000927","ARG_OF_PERICENTER":"66.8639","BSTAR":"-0.00004334100000","EPHEMERIS_TYPE":"0","MEAN_ELEMENT_THEORY":"SGP4","RCS_SIZE":"LARGE","FILE":"3676429","GP_ID":"219212605","TLE_LINE1":"1 44721U 19074J   22334.78978500 -.00000927  00000-0 -43341-4 0  9996","MEAN_MOTION":"15.06395032","PERIAPSIS":"545.873","REF_FRAME":"TEME","OBJECT_TYPE":"PAYLOAD","NORAD_CAT_ID":"44721","ELEMENT_SET_NO":"999","CLASSIFICATION_TYPE":"U","EPOCH":"2022-11-30T18:57:17.424000","APOAPSIS":"548.584","MEAN_MOTION_DDOT":"0.0000000000000","SEMIMAJOR_AXIS":"6925.364","MEAN_ANOMALY":"293.2556","RA_OF_ASC_NODE":"150.7396","CENTER_NAME":"EARTH","TIME_SYSTEM":"UTC","REV_AT_EPOCH":"16864","PERIOD":"95.592","INCLINATION":"53.0530","COUNTRY_CODE":"US","OBJECT_ID":"2019-074J","OBJECT_NAME":"STARLINK-1015"},{"TLE_LINE2":"2 44722  53.0540 150.7160 0001676  70.5579 289.5591 15.06390781168656","BSTAR":"-0.00002129500000","MEAN_MOTION_DOT":"-0.00000599","ARG_OF_PERICENTER":"70.5579","EPHEMERIS_TYPE":"0","MEAN_ELEMENT_THEORY":"SGP4","LAUNCH_DATE":"2019-11-11","DECAY_DATE":null,"SITE":"AFETR","ECCENTRICITY":"0.00016760","MEAN_MOTION":"15.06390781","PERIAPSIS":"546.081","RCS_SIZE":"LARGE","FILE":"3676429","TLE_LINE1":"1 44722U 19074K   22334.79252156 -.00000599  00000-0 -21295-4 0  9999","GP_ID":"219213357","EPOCH":"2022-11-30T19:01:13.862784","APOAPSIS":"548.403","MEAN_MOTION_DDOT":"0.0000000000000","SEMIMAJOR_AXIS":"6925.377","REF_FRAME":"TEME","OBJECT_TYPE":"PAYLOAD","ELEMENT_SET_NO":"999","NORAD_CAT_ID":"44722","CLASSIFICATION_TYPE":"U","OBJECT_ID":"2019-074K","COUNTRY_CODE":"US","INCLINATION":"53.0540","OBJECT_NAME":"STARLINK-1016","MEAN_ANOMALY":"289.5591","REV_AT_EPOCH":"16865","PERIOD":"95.593","TIME_SYSTEM":"UTC","RA_OF_ASC_NODE":"150.7160","CENTER_NAME":"EARTH"}];
